BUFENG 1A               
1 44310U 19032A   26068.91906837  .00016103  00000+0  62414-3 0  9992
2 44310  44.9758 238.6688 0005472  55.4463 304.6935 15.26012088372013
STARLINK-31593          
1 59350U 24060C   26068.53484944 -.00001013  00000+0 -27294-4 0  9991
2 59350  43.0021 260.3484 0001082 292.7870  67.2868 15.27569226110045
